start=new Date('2021-11-30T00:00:00.000Z').valueOf();
sats=[{"TLE_LINE1":"1 46152U 20057AM  21333.80088294  .00001397  00000-0  11261-3 0  9997","APOAPSIS":"548.367","FILE":"3227094","OBJECT_ID":"2020-057AM","TIME_SYSTEM":"UTC","CENTER_NAME":"EARTH","REF_FRAME":"TEME","OBJECT_TYPE":"PAYLOAD","LAUNCH_DATE":"2020-08-18","ECCENTRICITY":"0.00017110","BSTAR":"0.00011261000000","CLASSIFICATION_TYPE":"U","MEAN_MOTION_DOT":"0.00001397","OBJECT_NAME":"STARLINK-1634","PERIAPSIS":"545.997","MEAN_ANOMALY":"272.3063","MEAN_ELEMENT_THEORY":"SGP4","EPHEMERIS_TYPE":"0","RCS_SIZE":"LARGE","INCLINATION":"53.0547","MEAN_MOTION":"15.06410212","TLE_LINE2":"2 46152  53.0547 123.7216 0001711  87.8122 272.3063 15.06410212 70804","DECAY_DATE":null,"NORAD_CAT_ID":"46152","REV_AT_EPOCH":"7080","SEMIMAJOR_AXIS":"6925.317","ELEMENT_SET_NO":"999","GP_ID":"190747306","PERIOD":"95.591","SITE":"AFETR","RA_OF_ASC_NODE":"123.7216","COUNTRY_CODE":"US","MEAN_MOTION_DDOT":"0.0000000000000","ARG_OF_PERICENTER":"87.8122","EPOCH":"2021-11-29T19:13:16.286016"},{"OBJECT_TYPE":"PAYLOAD","REF_FRAME":"TEME","CENTER_NAME":"EARTH","TIME_SYSTEM":"UTC","OBJECT_ID":"2020-057AN","FILE":"3227094","APOAPSIS":"548.321","TLE_LINE1":"1 46153U 20057AN  21333.90224422 -.00000068  00000-0  14358-4 0  9990","MEAN_MOTION":"15.06397338","EPHEMERIS_TYPE":"0","RCS_SIZE":"LARGE","INCLINATION":"53.0539","MEAN_ANOMALY":"278.0619","MEAN_ELEMENT_THEORY":"SGP4","PERIAPSIS":"546.123","OBJECT_NAME":"STARLINK-1636","MEAN_MOTION_DOT":"-0.00000068","CLASSIFICATION_TYPE":"U","LAUNCH_DATE":"2020-08-18","BSTAR":"0.00001435800000","ECCENTRICITY":"0.00015870","PERIOD":"95.592","ELEMENT_SET_NO":"999","GP_ID":"190748057","SEMIMAJOR_AXIS":"6925.357","REV_AT_EPOCH":"7109","NORAD_CAT_ID":"46153","DECAY_DATE":null,"TLE_LINE2":"2 46153  53.0539 103.2711 0001587  82.0550 278.0619 15.06397338 71097","EPOCH":"2021-11-29T21:39:13.900608","ARG_OF_PERICENTER":"82.0550","MEAN_MOTION_DDOT":"0.0000000000000","RA_OF_ASC_NODE":"103.2711","COUNTRY_CODE":"US","SITE":"AFETR"},{"SITE":"AFETR","RA_OF_ASC_NODE":"113.2244","COUNTRY_CODE":"US","MEAN_MOTION_DDOT":"0.0000000000000","ARG_OF_PERICENTER":"82.8372","EPOCH":"2021-11-29T21:53:50.225568","TLE_LINE2":"2 46154  53.0548 113.2244 0001448  82.8372 277.2782 15.06404460 70968","DECAY_DATE":null,"NORAD_CAT_ID":"46154","REV_AT_EPOCH":"7096","SEMIMAJOR_AXIS":"6925.335","ELEMENT_SET_NO":"999","GP_ID":"190748308","PERIOD":"95.592","LAUNCH_DATE":"2020-08-18","BSTAR":"0.00000096802000","ECCENTRICITY":"0.00014480","MEAN_MOTION_DOT":"-0.00000267","CLASSIFICATION_TYPE":"U","OBJECT_NAME":"STARLINK-1642","PERIAPSIS":"546.197","MEAN_ELEMENT_THEORY":"SGP4","MEAN_ANOMALY":"277.2782","EPHEMERIS_TYPE":"0","RCS_SIZE":"LARGE","INCLINATION":"53.0548","MEAN_MOTION":"15.06404460","APOAPSIS":"548.203","TLE_LINE1":"1 46154U 20057AP  21333.91238687 -.00000267  00000-0  96802-6 0  9997","FILE":"3227094","OBJECT_ID":"2020-057AP","TIME_SYSTEM":"UTC","CENTER_NAME":"EARTH","REF_FRAME":"TEME","OBJECT_TYPE":"PAYLOAD"},{"OBJECT_ID":"2020-057AQ","TIME_SYSTEM":"UTC","REF_FRAME":"TEME","OBJECT_TYPE":"PAYLOAD","CENTER_NAME":"EARTH","FILE":"3226898","TLE_LINE1":"1 46155U 20057AQ  21333.47283236  .00000029  00000-0  20836-4 0  9996","APOAPSIS":"548.181","MEAN_ELEMENT_THEORY":"SGP4","MEAN_ANOMALY":"287.8817","RCS_SIZE":"LARGE","INCLINATION":"53.0540","EPHEMERIS_TYPE":"0","PERIAPSIS":"546.291","MEAN_MOTION":"15.06392678","OBJECT_NAME":"STARLINK-1667","BSTAR":"0.00002083600000","LAUNCH_DATE":"2020-08-18","ECCENTRICITY":"0.00013640","MEAN_MOTION_DOT":"0.00000029","CLASSIFICATION_TYPE":"U","SEMIMAJOR_AXIS":"6925.371","NORAD_CAT_ID":"46155","REV_AT_EPOCH":"7255","GP_ID":"190719962","ELEMENT_SET_NO":"999","PERIOD":"95.593","DECAY_DATE":null,"TLE_LINE2":"2 46155  53.0540  85.1934 0001364  72.2320 287.8817 15.06392678 72557","EPOCH":"2021-11-29T11:20:52.715904","ARG_OF_PERICENTER":"72.2320","COUNTRY_CODE":"US","RA_OF_ASC_NODE":"85.1934","SITE":"AFETR","MEAN_MOTION_DDOT":"0.0000000000000"},{"DECAY_DATE":null,"TLE_LINE2":"2 46156  53.0549 104.3431 0001524  91.9251 268.1912 15.06402310 72319","SEMIMAJOR_AXIS":"6925.341","NORAD_CAT_ID":"46156","REV_AT_EPOCH":"7231","GP_ID":"190747806","ELEMENT_SET_NO":"999","PERIOD":"95.592","RA_OF_ASC_NODE":"104.3431","COUNTRY_CODE":"US","SITE":"AFETR","MEAN_MOTION_DDOT":"0.0000000000000","EPOCH":"2021-11-29T15:54:13.652928","ARG_OF_PERICENTER":"91.9251","FILE":"3227094","APOAPSIS":"548.262","TLE_LINE1":"1 46156U 20057AR  21333.66265802 -.00000114  00000-0  11221-4 0  9991","OBJECT_ID":"2020-057AR","TIME_SYSTEM":"UTC","REF_FRAME":"TEME","OBJECT_TYPE":"PAYLOAD","CENTER_NAME":"EARTH","OBJECT_NAME":"STARLINK-1545","LAUNCH_DATE":"2020-08-18","BSTAR":"0.00001122100000","ECCENTRICITY":"0.00015240","MEAN_MOTION_DOT":"-0.00000114","CLASSIFICATION_TYPE":"U","MEAN_ELEMENT_THEORY":"SGP4","MEAN_ANOMALY":"268.1912","INCLINATION":"53.0549","RCS_SIZE":"LARGE","EPHEMERIS_TYPE":"0","PERIAPSIS":"546.151","MEAN_MOTION":"15.06402310"},{"OBJECT_ID":"2020-057AS","TIME_SYSTEM":"UTC","CENTER_NAME":"EARTH","OBJECT_TYPE":"PAYLOAD","REF_FRAME":"TEME","TLE_LINE1":"1 46157U 20057AS  21333.45071537  .00000556  00000-0  56246-4 0  9994","APOAPSIS":"548.019","FILE":"3226898","PERIAPSIS":"546.433","INCLINATION":"53.0544","RCS_SIZE":"LARGE","EPHEMERIS_TYPE":"0","MEAN_ELEMENT_THEORY":"SGP4","MEAN_ANOMALY":"282.3032","MEAN_MOTION":"15.06395997","MEAN_MOTION_DOT":"0.00000556","CLASSIFICATION_TYPE":"U","LAUNCH_DATE":"2020-08-18","ECCENTRICITY":"0.00011450","BSTAR":"0.00005624600000","OBJECT_NAME":"STARLINK-1587","REV_AT_EPOCH":"7131","NORAD_CAT_ID":"46157","SEMIMAJOR_AXIS":"6925.361","PERIOD":"95.592","GP_ID":"190720964","ELEMENT_SET_NO":"999","TLE_LINE2":"2 46157  53.0544  85.2840 0001145  77.8085 282.3032 15.06395997 71315","DECAY_DATE":null,"ARG_OF_PERICENTER":"77.8085","EPOCH":"2021-11-29T10:49:01.807968","SITE":"AFETR","COUNTRY_CODE":"US","RA_OF_ASC_NODE":"85.2840","MEAN_MOTION_DDOT":"0.0000000000000"},{"FILE":"3227094","APOAPSIS":"548.083","TLE_LINE1":"1 46158U 20057AT  21333.71241218  .00001477  00000-0  11800-3 0  9998","TIME_SYSTEM":"UTC","OBJECT_ID":"2020-057AT","REF_FRAME":"TEME","OBJECT_TYPE":"PAYLOAD","CENTER_NAME":"EARTH","OBJECT_NAME":"STARLINK-1589","LAUNCH_DATE":"2020-08-18","ECCENTRICITY":"0.00012540","BSTAR":"0.00011800000000","MEAN_MOTION_DOT":"0.00001477","CLASSIFICATION_TYPE":"U","MEAN_ELEMENT_THEORY":"SGP4","MEAN_ANOMALY":"275.1046","EPHEMERIS_TYPE":"0","RCS_SIZE":"LARGE","INCLINATION":"53.0548","PERIAPSIS":"546.346","MEAN_MOTION":"15.06399653","DECAY_DATE":null,"TLE_LINE2":"2 46158  53.0548  84.1200 0001254  85.0086 275.1046 15.06399653 72613","SEMIMAJOR_AXIS":"6925.350","NORAD_CAT_ID":"46158","REV_AT_EPOCH":"7261","GP_ID":"190748808","ELEMENT_SET_NO":"999","PERIOD":"95.592","COUNTRY_CODE":"US","RA_OF_ASC_NODE":"84.1200","SITE":"AFETR","MEAN_MOTION_DDOT":"0.0000000000000","EPOCH":"2021-11-29T17:05:52.412352","ARG_OF_PERICENTER":"85.0086"},{"MEAN_MOTION_DDOT":"0.0000000000000","RA_OF_ASC_NODE":"124.2410","COUNTRY_CODE":"US","SITE":"AFETR","EPOCH":"2021-11-29T16:28:44.171904","ARG_OF_PERICENTER":"95.2498","DECAY_DATE":null,"TLE_LINE2":"2 46159  53.0537 124.2410 0001881  95.2498 264.8705 15.06413146 72045","ELEMENT_SET_NO":"999","GP_ID":"190748537","PERIOD":"95.591","SEMIMAJOR_AXIS":"6925.308","NORAD_CAT_ID":"46159","REV_AT_EPOCH":"7204","OBJECT_NAME":"STARLINK-1595","LAUNCH_DATE":"2020-08-18","ECCENTRICITY":"0.00018810","BSTAR":"0.00013172000000","MEAN_MOTION_DOT":"0.00001682","CLASSIFICATION_TYPE":"U","MEAN_MOTION":"15.06413146","MEAN_ELEMENT_THEORY":"SGP4","MEAN_ANOMALY":"264.8705","RCS_SIZE":"LARGE","INCLINATION":"53.0537","EPHEMERIS_TYPE":"0","PERIAPSIS":"545.871","FILE":"3227094","APOAPSIS":"548.476","TLE_LINE1":"1 46159U 20057AU  21333.68662236  .00001682  00000-0  13172-3 0  9994","REF_FRAME":"TEME","OBJECT_TYPE":"PAYLOAD","CENTER_NAME":"EARTH","OBJECT_ID":"2020-057AU","TIME_SYSTEM":"UTC"},{"EPHEMERIS_TYPE":"0","RCS_SIZE":"LARGE","INCLINATION":"53.0542","MEAN_ANOMALY":"281.8547","MEAN_ELEMENT_THEORY":"SGP4","PERIAPSIS":"546.069","MEAN_MOTION":"15.06370616","OBJECT_NAME":"STARLINK-1598","MEAN_MOTION_DOT":"0.00005199","CLASSIFICATION_TYPE":"U","LAUNCH_DATE":"2020-08-18","BSTAR":"0.00036792000000","ECCENTRICITY":"0.00017830","OBJECT_ID":"2020-057AV","TIME_SYSTEM":"UTC","OBJECT_TYPE":"PAYLOAD","REF_FRAME":"TEME","CENTER_NAME":"EARTH","FILE":"3226898","APOAPSIS":"548.538","TLE_LINE1":"1 46160U 20057AV  21333.54471167  .00005199  00000-0  36792-3 0  9992","EPOCH":"2021-11-29T13:04:23.088288","ARG_OF_PERICENTER":"78.2642","RA_OF_ASC_NODE":"104.8691","COUNTRY_CODE":"US","SITE":"AFETR","MEAN_MOTION_DDOT":"0.0000000000000","SEMIMAJOR_AXIS":"6925.439","REV_AT_EPOCH":"7229","NORAD_CAT_ID":"46160","PERIOD":"95.594","ELEMENT_SET_NO":"999","GP_ID":"190720714","DECAY_DATE":null,"TLE_LINE2":"2 46160  53.0542 104.8691 0001783  78.2642 281.8547 15.06370616 72295"},{"SEMIMAJOR_AXIS":"6925.330","REV_AT_EPOCH":"7235","NORAD_CAT_ID":"46161","PERIOD":"95.592","ELEMENT_SET_NO":"999","GP_ID":"190748058","DECAY_DATE":null,"TLE_LINE2":"2 46161  53.0542 103.1796 0001465  85.1168 274.9988 15.06405978 72350","EPOCH":"2021-11-29T22:05:45.634848","ARG_OF_PERICENTER":"85.1168","RA_OF_ASC_NODE":"103.1796","COUNTRY_CODE":"US","SITE":"AFETR","MEAN_MOTION_DDOT":"0.0000000000000","OBJECT_ID":"2020-057AW","TIME_SYSTEM":"UTC","OBJECT_TYPE":"PAYLOAD","REF_FRAME":"TEME","CENTER_NAME":"EARTH","FILE":"3227094","APOAPSIS":"548.210","TLE_LINE1":"1 46161U 20057AW  21333.92066707  .00000105  00000-0  25969-4 0  9992","RCS_SIZE":"LARGE","INCLINATION":"53.0542","EPHEMERIS_TYPE":"0","MEAN_ELEMENT_THEORY":"SGP4","MEAN_ANOMALY":"274.9988","PERIAPSIS":"546.181","MEAN_MOTION":"15.06405978","OBJECT_NAME":"STARLINK-1600","CLASSIFICATION_TYPE":"U","MEAN_MOTION_DOT":"0.00000105","LAUNCH_DATE":"2020-08-18","ECCENTRICITY":"0.00014650","BSTAR":"0.00002596900000"}];
